LEMUR-1                 
1 40044U 14033AL  26197.39674375  .00000745  00000+0  91388-4 0  9990
2 40044  97.7910 346.5598 0047632 343.9353  16.0349 14.85338776649801
LEMUR-2-GREENBERG       
1 42837U 17042N   26197.48372277  .00009505  00000+0  30816-3 0  9992
2 42837  97.3829  17.9935 0007251 254.1864 105.8578 15.32177816492878
LEMUR-2-ANDIS           
1 42838U 17042P   26197.44337106  .00012949  00000+0  37176-3 0  9993
2 42838  97.3681  18.2427 0007240 252.8330 107.2122 15.35956970492944
LEMUR-2-MONSON          
1 42839U 17042Q   26197.49124752  .00007839  00000+0  28284-3 0  9992
2 42839  97.4090  17.9272 0005394 239.7069 120.3638 15.28773757492642
LEMUR-2-FURIAUS         
1 42840U 17042R   26197.49750943  .00010084  00000+0  33733-3 0  9992
2 42840  97.3778  15.8960 0005913 324.3797  35.7049 15.31157870492699
LEMUR-2-PETERG          
1 42841U 17042S   26197.44497412  .00011542  00000+0  34148-3 0  9998
2 42841  97.3992  22.5486 0003389 214.3366 145.7659 15.35058112492929
LEMUR-2-DEMBITZ         
1 42842U 17042T   26197.45191893  .00008589  00000+0  28805-3 0  9994
2 42842  97.3828  18.8957 0005065 269.0377  91.0284 15.31130878492823
LEMUR-2-ZACHARY         
1 42845U 17042W   26197.59888678  .00031229  00000+0  50466-3 0  9991
2 42845  97.3569  29.9141 0002616 238.4144 121.6854 15.52806066493766
LEMUR-2-AMANDA-SVANTE   
1 48269U 21034B   26197.16739907  .00017874  00000+0  51162-3 0  9990
2 48269  97.5752 276.2525 0004619 140.8995 219.2583 15.35996622285509
LEMUR-2-SPECIAL-K       
1 48273U 21034F   26197.22303533  .00169731  00000+0  11202-2 0  9994
2 48273  97.5633 286.4062 0006278 212.8733 147.2141 15.75087247286244
LEMUR-2-EMBRIONOVIS     
1 56970U 23084AQ  26197.35090681  .00007614  00000+0  20418-3 0  9996
2 56970  97.6327 342.6901 0008415 202.0240 158.0643 15.38247880172166
LEMUR-2-DEVERILL-M-T    
1 57391U 23100F   26197.39954915  .00013958  00000+0  33969-3 0  9999
2 57391  99.4450 244.6279 0004705 292.0705  68.0035 15.41127160165746
LEMUR-2-BASS            
1 58259U 23174D   26197.18789286  .00009663  00000+0  21365-3 0  9993
2 58259  97.3848 282.3238 0007619  75.2260 284.9832 15.44014456149838
LEMUR-2-JK0903EM1407    
1 58336U 23174CJ  26197.21425151  .00015716  00000+0  25252-3 0  9996
2 58336  97.3926 288.5330 0003549  29.4194 330.7259 15.53102524150230
LEMUR-2-MJR092620       
1 58340U 23174CN  26197.42580198  .00010592  00000+0  21971-3 0  9998
2 58340  97.3976 288.0144 0005202  26.2655 333.8857 15.45889827150162
LEMUR-2-NIMBUS2000      
1 58899U 24022A   26197.50217301  .00013242  00000+0  32107-3 0  9990
2 58899  97.4075  47.8913 0008618  24.4356 335.7298 15.41151430136789
LEMUR-2-VALHALLA        
1 58900U 24022B   26197.50756812  .00009467  00000+0  23508-3 0  9997
2 58900  97.4075  47.8654 0009081  19.6300 340.5294 15.40513026136786
LEMUR-2-CAEL            
1 58903U 24022E   26197.16751785  .00009499  00000+0  22563-3 0  9991
2 58903  97.4056  48.5091 0007022   6.0617 354.0714 15.41875695136809
LEMUR-2-JOHNNYTRUONG    
1 59146U 24043BA  26197.37058727  .00023614  00000+0  26522-3 0  9997
2 59146  97.5396 350.9332 0004016  90.4293 269.7425 15.62625044132599
LEMUR-2-TOMATOKECHUP    
1 60471U 24149D   26197.48204930  .00005784  00000+0  16419-3 0  9990
2 60471  97.3796 279.6140 0003348 120.3105 239.8471 15.36597838106668
LEMUR-2-STELLA          
1 60533U 24149BT  26197.19850837  .00005213  00000+0  30425-3 0  9990
2 60533  97.6736 279.7913 0001252 119.4240 240.7115 15.12381661104881
LEMUR-2-MARHISYAM       
1 60536U 24149BW  26197.18981359  .00005441  00000+0  32263-3 0  9991
2 60536  97.6879 280.2601 0002338  68.0137 292.1341 15.11787785104869
LEMUR-2-AHMED-ASRAR     
1 60576U 24149DN  26197.19531720  .00006078  00000+0  34500-3 0  9992
2 60576  97.7004 282.4729 0001293 203.7256 156.3916 15.13317903104950
LEMUR-2-LLOYD           
1 60577U 24149DP  26197.47417644  .00004502  00000+0  28286-3 0  9996
2 60577  97.6743 278.6284 0004716  69.5067 290.6668 15.09763412104810
LEMUR-2-SQUIRRELCOMM    
1 60578U 24149DQ  26197.19922737  .00002060  00000+0  14009-3 0  9995
2 60578  97.6708 278.0240 0004045 322.9708  37.1239 15.07450971104775
LEMUR-2-SIERRINI        
1 60579U 24149DR  26197.48367675  .00005361  00000+0  32010-3 0  9991
2 60579  97.6841 280.2160 0006453  87.7474 272.4494 15.11527426104885
LEMUR-2-WILSON          
1 62694U 25009CP  26197.47330037  .00000726  00000+0  71120-4 0  9994
2 62694  97.7020 275.4246 0001927 317.7566  42.3506 14.95278347 81737
LEMUR-2-STAR-FOX        
1 62696U 25009CR  26197.45849638  .00003386  00000+0  25720-3 0  9995
2 62696  97.6905 278.8568 0002075  37.0378 323.0990 15.02849421 81958
LEMUR-2-ARIANNA         
1 62699U 25009CU  26197.19063443  .00003528  00000+0  26779-3 0  9994
2 62699  97.6848 278.3426 0002441  45.4867 314.6558 15.02849743 81917
LEMUR-2-ALISIA          
1 62706U 25009DB  26197.16278189  .00003920  00000+0  29439-3 0  9997
2 62706  97.6971 279.1419 0004420 126.4435 233.7199 15.03183137104517
